OBJECT_NAME,OBJECT_ID,EPOCH,MEAN_MOTION,ECCENTRICITY,INCLINATION,RA_OF_ASC_NODE,ARG_OF_PERICENTER,MEAN_ANOMALY,EPHEMERIS_TYPE,CLASSIFICATION_TYPE,NORAD_CAT_ID,ELEMENT_SET_NO,REV_AT_EPOCH,BSTAR,MEAN_MOTION_DOT,MEAN_MOTION_DDOT
STARLINK-3814,2022-045E,2026-07-01T21:42:10.595520,15.08835315,.00015543,53.1601,56.2109,92.8387,267.2782,0,U,52335,999,23288,.50801861E-4,.52E-5,0
STARLINK-3823,2022-045F,2026-07-01T22:00:01.999584,15.31277558,.00008676,53.1607,54.2454,76.7444,288.3116,0,U,52336,999,574,.23602863E-1,.779626E-2,0
STARLINK-3797,2022-045G,2026-07-01T21:58:04.027296,15.08837272,.00011896,53.1609,56.1573,116.9863,243.1250,0,U,52337,999,23288,.7226428E-5,-.173E-5,0
STARLINK-3792,2022-045J,2026-07-01T22:08:36.321504,15.08836823,.00013876,53.1619,55.7714,90.9171,269.1979,0,U,52339,999,23289,.63964375E-4,.73E-5,0
STARLINK-3818,2022-045K,2026-07-01T22:00:01.999584,15.20839035,.00017739,53.1597,45.7555,83.5191,105.4032,0,U,52340,999,579,.2987269E-2,.67053E-3,0
STARLINK-3843,2022-045L,2026-07-01T22:56:21.433632,15.08834932,.00014032,53.1616,55.9324,89.5407,270.5745,0,U,52341,999,23289,.86111954E-4,.1083E-4,0
STARLINK-3850,2022-045M,2026-07-01T22:10:01.221600,15.08827658,.00012216,53.1606,46.2381,82.2772,277.8358,0,U,52342,999,23302,.34069038E-4,.254E-5,0
STARLINK-3849,2022-045N,2026-07-01T22:13:57.895392,15.08836158,.0001327,53.1618,56.1119,98.6119,261.5023,0,U,52343,999,23289,.29396747E-4,.18E-5,0
STARLINK-3851,2022-045P,2026-07-01T21:54:06.671808,15.08827043,.0001238,53.1615,46.2414,92.5319,267.5814,0,U,52344,999,23302,.32338957E-4,.227E-5,0
STARLINK-3852,2022-045Q,2026-07-01T22:32:35.768832,15.08839140,.00013124,53.1603,46.2189,89.9896,270.1246,0,U,52345,999,23301,.53523288E-4,.564E-5,0
STARLINK-3812,2022-045R,2026-07-01T21:44:52.691424,15.08823343,.00016975,53.1594,46.2111,88.6957,271.4228,0,U,52346,999,23302,.27025497E-4,.142E-5,0
STARLINK-3826,2022-045S,2026-07-01T22:00:01.999584,15.20488073,.0001323,53.1598,45.7012,84.6670,152.9692,0,U,52347,999,579,.28802403E-1,.681645E-2,0
STARLINK-3829,2022-045T,2026-07-01T22:00:01.999584,15.16692939,.00008849,53.1590,45.7961,86.5566,202.5816,0,U,52348,999,564,.20789598E-2,.41137E-3,0
STARLINK-3819,2022-045U,2026-07-01T22:00:01.999584,15.19372839,.00010147,53.1588,45.6652,103.4239,193.4379,0,U,52349,999,555,.19360987E-2,.41376E-3,0
STARLINK-3754,2022-045V,2026-07-01T22:00:01.999584,15.20475076,.00008998,53.1598,45.7017,88.7163,269.3780,0,U,52350,999,579,.28853975E-2,.64041E-3,0
STARLINK-3838,2022-045X,2026-07-01T21:11:41.989632,15.08840658,.00012768,53.1606,46.3061,95.1705,264.9432,0,U,52352,999,23302,.73488684E-4,.882E-5,0
STARLINK-3807,2022-045Y,2026-07-01T22:00:01.999584,15.20946969,.00009164,53.1606,45.6589,51.6468,348.2737,0,U,52353,999,579,.2359395E-2,.52955E-3,0
STARLINK-3877,2022-045AA,2026-07-01T21:16:59.731680,15.08841675,.0001335,53.1613,46.2906,85.0479,275.0665,0,U,52355,999,23302,.60432025E-4,.674E-5,0
STARLINK-3801,2022-045AB,2026-07-01T22:00:01.999584,15.21835969,.00019544,53.1607,45.6351,83.8036,62.7143,0,U,52356,999,574,.1936096E-2,.44497E-3,0
STARLINK-3821,2022-045AC,2026-07-01T22:00:01.999584,15.20096677,.00010024,53.1603,45.7948,65.3472,324.2372,0,U,52357,999,559,.2728358E-2,.59837E-3,0
STARLINK-3837,2022-045AD,2026-07-01T22:15:19.842336,15.08816851,.00015952,53.1588,46.1080,63.8929,296.2226,0,U,52358,999,23303,.599126E-5,-.193E-5,0
STARLINK-3853,2022-045AE,2026-07-01T22:37:52.151808,15.08838240,.0001162,53.1611,46.0477,88.4391,271.6733,0,U,52359,999,23303,.24526799E-4,.102E-5,0
STARLINK-3728,2022-045AG,2026-07-01T22:00:01.999584,15.20618985,.00018605,53.1594,45.6329,85.0378,87.8615,0,U,52361,999,574,.20490253E-2,.45459E-3,0
STARLINK-3848,2022-045AH,2026-07-01T07:34:04.910304,15.29358464,.00011932,53.1608,37.4005,87.4294,272.6843,0,U,52362,999,23309,.41381713E-4,.838E-5,0
STARLINK-3830,2022-045AJ,2026-07-01T22:00:01.999584,15.16537602,.00005467,53.1600,45.9704,71.1962,307.3515,0,U,52363,999,579,.1673826E-2,.32875E-3,0
STARLINK-3820,2022-045AK,2026-07-01T07:21:02.262816,15.08836086,.00013179,53.1614,38.8134,93.9783,266.1359,0,U,52364,999,23307,.42422035E-4,.387E-5,0
STARLINK-3874,2022-045AL,2026-07-01T20:35:55.978656,15.08834865,.00013524,53.1610,36.4163,94.5888,265.5258,0,U,52365,999,23315,.47680965E-4,.471E-5,0
STARLINK-3808,2022-045AM,2026-07-01T21:44:49.467840,15.08836875,.00013252,53.1600,36.2038,88.9847,271.1296,0,U,52366,999,23316,.7956977E-4,.979E-5,0
STARLINK-3817,2022-045AN,2026-07-01T21:55:25.212000,15.08834578,.00011102,53.1616,36.1694,95.8273,264.2845,0,U,52367,999,23316,.11176588E-3,.1491E-4,0
STARLINK-3834,2022-045AP,2026-07-01T21:28:55.404480,15.08841914,.00014988,53.1608,36.2521,82.1972,277.9190,0,U,52368,999,23315,.11034808E-4,-.112E-5,0
STARLINK-3841,2022-045AQ,2026-07-01T21:50:07.468224,15.08837079,.00012777,53.1609,36.1875,84.7663,275.3474,0,U,52369,999,23316,.49596543E-4,.501E-5,0
STARLINK-3827,2022-045AR,2026-07-01T07:22:26.187456,15.08833679,.00011316,53.1602,38.9064,86.3040,273.8081,0,U,52370,999,23307,.51805894E-4,.537E-5,0
STARLINK-3798,2022-045AS,2026-07-01T21:26:23.442432,15.12901333,.00017054,53.1606,36.2027,127.2011,232.9138,0,U,52371,999,23315,.92289102E-2,.167964E-2,0
STARLINK-3796,2022-045AT,2026-07-01T22:00:01.999584,15.17363269,.0001566,53.1608,35.9781,98.2755,132.1396,0,U,52372,999,579,.39395939E-2,.80185E-3,0
STARLINK-3550,2022-045AU,2026-07-01T22:00:01.999584,15.31465978,.00013247,53.1701,34.3992,85.1891,294.5225,0,U,52373,999,579,.2064948E-1,.688066E-2,0
STARLINK-3762,2022-045AV,2026-07-01T22:00:01.999584,15.20451516,.00014557,53.1587,35.6768,58.2801,7.2740,0,U,52374,999,579,.32147268E-2,.71411E-3,0
STARLINK-3785,2022-045AW,2026-07-01T22:00:01.999584,15.17923364,.00006998,53.1599,35.8825,121.7768,177.2442,0,U,52375,999,574,.38702063E-2,.80045E-3,0
STARLINK-3805,2022-045AY,2026-07-01T21:34:17.032800,15.08753594,.00020556,53.1602,36.4587,44.3411,315.7745,0,U,52377,999,23315,.10735056E-2,.16798E-3,0
STARLINK-3806,2022-045AZ,2026-07-01T20:51:49.196160,15.08846881,.0001624,53.1621,36.3679,96.0252,264.0924,0,U,52378,999,23316,.9807636E-5,-.132E-5,0
STARLINK-3800,2022-045BA,2026-07-01T20:57:07.330464,15.08836239,.00018871,53.1598,36.3500,103.1207,256.9995,0,U,52379,999,23316,.1215759E-3,.1647E-4,0
STARLINK-3793,2022-045BB,2026-07-01T22:00:01.999584,15.20678457,.00011162,53.1598,25.7235,89.9661,140.8012,0,U,52380,999,564,.28926061E-1,.688889E-2,0
STARLINK-3799,2022-045BD,2026-07-01T22:00:01.999584,15.35545362,.0001446,53.2137,27.2486,75.6374,226.8828,0,U,52382,999,585,.31388315E-2,.111249E-2,0
STARLINK-3811,2022-045BE,2026-07-01T22:00:01.999584,15.21584526,.00014722,53.1610,25.7160,59.2335,355.3829,0,U,52383,999,579,.47117759E-1,.1170614E-1,0
STARLINK-3909,2022-049B,2026-07-01T15:44:27.399552,15.08839043,.00011708,53.1592,277.1938,83.6341,276.4784,0,U,52452,999,22931,.10632464E-3,.1405E-4,0
STARLINK-3872,2022-049C,2026-07-01T15:17:59.680320,15.08835288,.00011657,53.1596,277.4051,93.2359,266.8765,0,U,52453,999,22931,.72889384E-4,.872E-5,0
STARLINK-3888,2022-049D,2026-07-01T12:12:30.654432,15.08834530,.00010317,53.1598,277.9849,92.7799,267.3311,0,U,52454,999,22929,.53374401E-4,.562E-5,0
STARLINK-3890,2022-049E,2026-07-01T12:03:17.697888,15.08832363,.00012656,53.1603,278.0135,91.2882,268.8254,0,U,52455,999,22929,.33892844E-4,.251E-5,0
STARLINK-3896,2022-049F,2026-07-01T15:08:45.756960,15.08834415,.00011782,53.1601,277.4348,84.9486,275.1640,0,U,52456,999,22931,.29616657E-4,.183E-5,0
STARLINK-3899,2022-049G,2026-07-01T11:51:18.852480,15.08833541,.00012162,53.1607,278.0392,99.5923,260.5206,0,U,52457,999,22929,.978173E-5,-.132E-5,0
STARLINK-3898,2022-049H,2026-07-01T11:47:23.609472,15.08832462,.000126,53.1608,278.0588,91.9952,268.1183,0,U,52458,999,22929,-.7457058E-5,-.407E-5,0
STARLINK-3856,2022-049J,2026-07-01T22:33:50.648256,15.08836305,.0001013,53.1593,266.0419,83.9603,276.1504,0,U,52459,999,22949,-.33639582E-4,-.823E-5,0
STARLINK-3900,2022-049L,2026-07-01T22:29:51.699552,15.08837550,.00009207,53.1576,256.0551,86.5911,273.5185,0,U,52461,999,22963,.58055544E-4,.636E-5,0
STARLINK-3903,2022-049M,2026-07-01T22:24:37.323648,15.08837740,.00009494,53.1584,266.0834,91.6268,268.4832,0,U,52462,999,22949,.37842286E-4,.314E-5,0
STARLINK-3885,2022-049N,2026-07-01T22:24:33.633504,15.08840527,.00008464,53.1582,256.0721,93.8670,266.2418,0,U,52463,999,22963,.51731307E-4,.536E-5,0
STARLINK-3904,2022-049P,2026-07-01T22:28:32.660832,15.08844696,.00009814,53.1583,266.0615,85.8632,274.2471,0,U,52464,999,22949,-.7245096E-5,-.403E-5,0
STARLINK-3863,2022-049Q,2026-07-01T22:19:15.854304,15.08838799,.00010181,53.1587,256.0884,86.3723,273.7385,0,U,52465,999,22963,.80878025E-4,.1E-4,0
STARLINK-3873,2022-049S,2026-07-01T22:17:56.431104,15.08837046,.00007485,53.1581,266.0943,91.7984,268.3093,0,U,52467,999,22949,.72305597E-4,.863E-5,0
STARLINK-3864,2022-049T,2026-07-01T15:35:11.890752,15.08840504,.00010254,53.1593,267.3497,106.6581,253.4523,0,U,52468,999,22945,.93708844E-4,.1204E-4,0
STARLINK-3828,2022-049U,2026-07-01T15:45:48.191328,15.08834249,.00008459,53.1594,267.3251,75.3512,284.7574,0,U,52469,999,22945,.24218511E-4,.98E-6,0
STARLINK-3859,2022-049V,2026-07-01T12:13:49.627488,15.08837445,.000084,53.1578,267.9750,114.2654,245.8426,0,U,52470,999,22943,.691372E-4,.813E-5,0
STARLINK-3862,2022-049W,2026-07-01T22:00:01.999584,15.29368679,.00013184,53.1571,264.9045,96.7665,178.1394,0,U,52471,999,559,-.8683437E-3,-.25337E-3,0
STARLINK-3881,2022-049X,2026-07-01T10:33:09.155520,15.08828479,.00010862,53.1590,268.2918,73.9217,286.1893,0,U,52472,999,22942,.20137828E-3,.2918E-4,0
STARLINK-3879,2022-049Y,2026-07-01T12:19:07.820544,15.08849021,.00011397,53.1599,267.9611,82.0175,278.0946,0,U,52473,999,22943,-.25718241E-3,-.438E-4,0
STARLINK-3882,2022-049AA,2026-07-01T22:12:40.935456,15.08834532,.00007751,53.1591,266.3323,78.9050,281.2029,0,U,52475,999,22949,.6525037E-4,.751E-5,0
